[{"OBJECT_NAME":"NUSAT-49 (KLARA DAN VON NEUMANN)","OBJECT_ID":"2024-149AJ","EPOCH":"2026-03-09T19:09:16.004160","MEAN_MOTION":15.30828857,"ECCENTRICITY":0.00011321,"INCLINATION":97.3807,"RA_OF_ASC_NODE":150.738,"ARG_OF_PERICENTER":286.7761,"MEAN_ANOMALY":73.3356,"EPHEMERIS_TYPE":0,"CLASSIFICATION_TYPE":"U","NORAD_CAT_ID":60500,"ELEMENT_SET_NO":999,"REV_AT_EPOCH":8693,"BSTAR":0.00043568345,"MEAN_MOTION_DOT":0.00012912,"MEAN_MOTION_DDOT":0},{"OBJECT_NAME":"STARLINK-34248","OBJECT_ID":"2025-157AA","EPOCH":"2026-03-09T23:12:31.185504","MEAN_MOTION":15.30203271,"ECCENTRICITY":0.00013447,"INCLINATION":53.161,"RA_OF_ASC_NODE":344.5631,"ARG_OF_PERICENTER":76.9158,"MEAN_ANOMALY":283.1993,"EPHEMERIS_TYPE":0,"CLASSIFICATION_TYPE":"U","NORAD_CAT_ID":64928,"ELEMENT_SET_NO":999,"REV_AT_EPOCH":3616,"BSTAR":0.00085570332,"MEAN_MOTION_DOT":0.00025072,"MEAN_MOTION_DDOT":0}]
